COSMOS 2251 DEB         
1 35724U 93036AQV 23258.42219222  .00001678  00000+0  39026-3 0  9990
2 35724  74.0325  57.5108 0063601  56.3507 304.3700 14.54486096756015
COSMOS 2251 DEB         
1 35726U 93036AQX 23256.91692511  .00019824  00000+0  26982-2 0  9998
2 35726  74.0470 326.6667 0031949 274.0060  85.7463 14.78348817760577
COSMOS 2251 DEB         
1 35729U 93036ARA 23258.04437679  .00010879  00000+0  18217-2 0  9992
2 35729  74.0344  16.1650 0030004   6.7333 108.8494 14.69569407759857
COSMOS 2251 DEB         
1 35759U 93036ARD 23258.55849613  .00001714  00000+0  34655-3 0  9999
2 35759  74.0423 345.2734 0084557 313.0393  46.3710 14.59944968765873
COSMOS 2251 DEB         
1 35764U 93036ARJ 23256.94974183  .00006752  00000+0  14986-2 0  9998
2 35764  74.0310 125.7602 0036062  96.8113 263.7156 14.56841403769086
COSMOS 2251 DEB         
1 35765U 93036ARK 23258.35284739  .00062715  00000+0  73047-2 0  9991
2 35765  74.1062 225.7984 0084512  12.9899 347.3426 14.82349353623140
COSMOS 2251 DEB         
1 35771U 93036ARR 23257.49117408  .00008137  00000+0  50320-2 0  9997
2 35771  74.1785 279.9597 0286015  71.6193 291.5808 13.87095841713813
COSMOS 2251 DEB         
1 35773U 93036ART 23258.61336485  .00002795  00000+0  66285-3 0  9994
2 35773  74.0091 101.2268 0054313 100.3991 260.3299 14.53568508757743
COSMOS 2251 DEB         
1 35775U 93036ARV 23258.55931892  .00012587  00000+0  17087-2 0  9997
2 35775  74.0289 323.8192 0030888 315.8919 111.1640 14.78572225762664
COSMOS 2251 DEB         
1 35777U 93036ARX 23258.50765340  .00000346  00000+0  37005-3 0  9990
2 35777  73.7709 189.8653 0456624 205.2035 280.9875 13.39695268687066
COSMOS 2251 DEB         
1 35784U 93036ASE 23257.05452083  .00001433  00000+0  39955-3 0  9998
2 35784  74.0403 186.6271 0043592 162.0382 198.2329 14.46678435538247
COSMOS 2251 DEB         
1 35786U 93036ASG 23258.04409935  .00004600  00000+0  11248-2 0  9991
2 35786  74.0217 167.4043 0045059 137.8046 222.6598 14.52214583760438
COSMOS 2251 DEB         
1 35788U 93036ASJ 23258.47516765  .00017612  00000+0  26977-2 0  9992
2 35788  74.0128  70.1204 0018305  41.1819 319.0730 14.73552951754843
COSMOS 2251 DEB         
1 35789U 93036ASK 23258.23023962  .00000480  00000+0  17582-3 0  9997
2 35789  74.0411 347.3108 0049855 288.0536  71.5188 14.34882952494687
COSMOS 2251 DEB         
1 35793U 93036ASP 23251.64683003  .00006070  00000+0  14359-2 0  9997
2 35793  74.0536 209.3680 0008540 152.4425  22.2627 14.54281293756415
COSMOS 2251 DEB         
1 35795U 93036ASR 23258.08397657  .00192745  00000+0  72343-2 0  9993
2 35795  73.9856 197.5539 0021536 211.5030 148.4883 15.26107139506537
COSMOS 2251 DEB         
1 35796U 93036ASS 23250.78448866  .00007746  00000+0  19148-2 0  9992
2 35796  74.0031 291.3351 0038889 234.6330 125.1195 14.51720763746791
COSMOS 2251 DEB         
1 35824U 93036ASW 23256.01968882  .00003870  00000+0  26874-2 0  9999
2 35824  73.8491  15.3246 0270326 246.3714 110.8820 13.83095439728444
COSMOS 2251 DEB         
1 35825U 93036ASX 23258.10373574  .00001178  00000+0  91873-3 0  9991
2 35825  74.1159  44.1501 0370013 334.2326  24.0750 13.65620320712976
COSMOS 2251 DEB         
1 35829U 93036ATB 23258.61841667  .00006880  00000+0  17132-2 0  9994
2 35829  74.0342 229.9860 0013368 147.0412 213.1586 14.51808365759205
COSMOS 2251 DEB         
1 35830U 93036ATC 23258.47351847  .00003246  00000+0  15639-2 0  9999
2 35830  73.8665 305.5965 0132694  71.9737 289.5810 14.14602640496413
COSMOS 2251 DEB         
1 35834U 93036ATG 23258.61216880  .00000513  00000+0  27782-3 0  9993
2 35834  73.9326 320.7917 0116089 288.7025 223.0374 14.11759014546987
COSMOS 2251 DEB         
1 35835U 93036ATH 23258.12767597  .00001263  00000+0  90340-3 0  9999
2 35835  74.0642 200.9712 0307950 170.8946 189.7947 13.77811167503891
COSMOS 2251 DEB         
1 35836U 93036ATJ 23258.52869114  .00004806  00000+0  12837-2 0  9992
2 35836  74.0407 293.1956 0039295 202.1051 157.8416 14.48163475515740
COSMOS 2251 DEB         
1 35837U 93036ATK 23258.30370547  .00008078  00000+0  63898-2 0  9994
2 35837  73.7269 116.9325 0465093 151.8865 332.7934 13.50708901468575
COSMOS 2251 DEB         
1 35839U 93036ATM 23258.40729461  .00008647  00000+0  14979-2 0  9998
2 35839  74.2392 149.4220 0032212 201.5720 277.2015 14.68069072763470
COSMOS 2251 DEB         
1 35840U 93036ATN 23255.63373807  .00008275  00000+0  32412-2 0  9990
2 35840  73.9359 225.0393 0142118 304.0898  54.6827 14.24191069735319
COSMOS 2251 DEB         
1 35881U 93036ATU 23258.71132693  .00019657  00000+0  51106-2 0  9990
2 35881  74.1973 250.0882 0058919 290.0674  69.4151 14.48556797755181
COSMOS 2251 DEB         
1 35883U 93036ATW 23258.04545443  .00001272  00000+0  33981-3 0  9995
2 35883  74.0257 167.8943 0087839 138.4103 236.4114 14.47141061505142
COSMOS 2251 DEB         
1 35884U 93036ATX 23256.06625810  .00003864  00000+0  18366-2 0  9991
2 35884  73.9957  11.4802 0128413 343.3961  16.2992 14.15521997737891
COSMOS 2251 DEB         
1 35885U 93036ATY 23257.03920889  .00001165  00000+0  41767-3 0  9998
2 35885  74.0317   2.7502 0025737 285.4938  74.3372 14.34893311532331
COSMOS 2251 DEB         
1 35888U 93036AUB 23258.28351621  .00002343  00000+0  56871-3 0  9992
2 35888  74.0326 109.4546 0054354  86.2969 274.4406 14.52570822743519
COSMOS 2251 DEB         
1 35890U 93036AUD 23257.93969653  .00005274  00000+0  16307-2 0  9991
2 35890  73.9462 347.2229 0073721 295.0015  64.3496 14.39954985532828
COSMOS 2251 DEB         
1 35891U 93036AUE 23258.55758733  .00006703  00000+0  61365-3 0  9999
2 35891  74.0028 343.3314 0108525 322.8057  36.5639 14.90707896548750
COSMOS 2251 DEB         
1 35893U 93036AUG 23257.05115177  .00016366  00000+0  33846-2 0  9992
2 35893  73.6510  13.9379 0057681 339.9939  19.8962 14.59266453538743
COSMOS 2251 DEB         
1 35895U 93036AUJ 23252.91366587  .00003108  00000+0  19042-2 0  9999
2 35895  74.0529 330.9290 0221143 261.4526  96.1492 13.94835469712243
COSMOS 2251 DEB         
1 35898U 93036AUM 23255.92273470  .00007211  00000+0  92958-3 0  9991
2 35898  73.9990 134.6114 0109645 126.1700 247.9438 14.77007668546079
COSMOS 2251 DEB         
1 35900U 93036AUP 23249.70778927  .00009798  00000+0  20845-2 0  9998
2 35900  74.0256 241.9484 0013448 165.3380 194.8178 14.59059664455541
COSMOS 2251 DEB         
1 35901U 93036AUQ 23258.09913525  .00010221  00000+0  22528-2 0  9999
2 35901  74.0331 189.8647 0011009 115.7630 257.9401 14.57438963741151
COSMOS 2251 DEB         
1 35902U 93036AUR 23257.47154570  .00002514  00000+0  11255-2 0  9999
2 35902  73.9848 274.6464 0113857 215.7270 143.6220 14.19695292494599
COSMOS 2251 DEB         
1 35903U 93036AUS 23256.26198491  .00021455  00000+0  20556-2 0  9995
2 35903  74.0572 107.5466 0075682   0.4842 359.6398 14.90924301550277
COSMOS 2251 DEB         
1 35904U 93036AUT 23258.06944413  .00014007  00000+0  23160-2 0  9998
2 35904  74.0219  37.4611 0023857  23.0101 337.2133 14.70185140540833
COSMOS 2251 DEB         
1 35905U 93036AUU 23256.71644545  .00005312  00000+0  58013-3 0  9997
2 35905  74.0367  55.8154 0119113 353.6599   6.3062 14.83041079765209
COSMOS 2251 DEB         
1 35906U 93036AUV 23258.16593709  .00040013  00000+0  27038-2 0  9993
2 35906  74.0102 161.5510 0074805 221.6014 137.9470 15.04079931759470
COSMOS 2251 DEB         
1 35956U 93036AUW 23256.31484570  .00007256  00000+0  45206-2 0  9997
2 35956  74.0904 225.2093 0284663 141.8724 220.2927 13.86899489702326
COSMOS 2251 DEB         
1 35959U 93036AUZ 23257.69106654  .00000475  00000+0  18220-3 0  9999
2 35959  74.0349  12.0745 0023664 293.1311  66.7347 14.33103253731762
COSMOS 2251 DEB         
1 35961U 93036AVB 23256.12628981  .00006617  00000+0  38471-2 0  9994
2 35961  73.9300 201.3457 0208686 301.1197  56.9609 13.98506671511662
COSMOS 2251 DEB         
1 35962U 93036AVC 23252.48644615  .00011417  00000+0  25204-2 0  9996
2 35962  74.0096 301.1939 0032241 205.2840 154.6748 14.57061443539773
COSMOS 2251 DEB         
1 35968U 93036AVJ 23257.14646284  .00109399  00000+0  42425-2 0  9995
2 35968  73.6905 178.0836 0046007 212.1329 147.7064 15.24615961778532
COSMOS 2251 DEB         
1 35970U 93036AVL 23258.10955078  .00013288  00000+0  22117-2 0  9996
2 35970  74.0391  25.7390 0033514 338.1985  21.7757 14.69718734746533
COSMOS 2251 DEB         
1 35974U 93036AVQ 23254.97587502  .00011177  00000+0  21254-2 0  9990
2 35974  74.0284 126.4427 0013092  85.0499 275.2163 14.64144229539832
COSMOS 2251 DEB         
1 35975U 93036AVR 23258.62559124  .00003374  00000+0  15547-2 0  9994
2 35975  74.0570 358.3179 0129375 277.7594  80.8875 14.17112268739387
COSMOS 2251 DEB         
1 35976U 93036AVS 23253.67259828  .00003935  00000+0  12239-2 0  9991
2 35976  74.0434  12.1641 0056562 287.6781  71.8204 14.40401090747083
COSMOS 2251 DEB         
1 35979U 93036AVV 23253.67346731  .00003731  00000+0  74292-3 0  9996
2 35979  74.0183  31.8411 0076130  10.8252   2.3445 14.60570895765462
COSMOS 2251 DEB         
1 35980U 93036AVW 23255.22756290  .00003834  00000+0  10849-2 0  9997
2 35980  73.9250 242.8421 0069920 195.7744 164.1236 14.44504257735711
COSMOS 2251 DEB         
1 35982U 93036AVY 23258.57530404  .00002450  00000+0  55545-3 0  9993
2 35982  74.0576 105.2678 0074440  24.6330 335.8358 14.54931775742200
COSMOS 2251 DEB         
1 35987U 93036AWD 23258.38844356  .00003244  00000+0  11281-2 0  9991
2 35987  74.0032  41.8258 0056582 359.9647   0.1491 14.34958164492798
COSMOS 2251 DEB         
1 35989U 93036AWF 23258.60235226  .00000724  00000+0  26093-3 0  9996
2 35989  74.0408 347.9828 0023826 273.7150  86.1277 14.35298852754987
COSMOS 2251 DEB         
1 35993U 93036AWK 23253.93961944  .00003120  00000+0  72649-3 0  9996
2 35993  74.0177 106.9651 0035089 137.3870 223.0025 14.54896604484196
